start=new Date('2021-08-28T00:00:00.000Z').valueOf();
sats=[{"ELEMENT_SET_NO":"999","MEAN_ANOMALY":"217.0515","ARG_OF_PERICENTER":"143.0568","SEMIMAJOR_AXIS":"6925.322","PERIOD":"95.592","RA_OF_ASC_NODE":"1.1550","REF_FRAME":"TEME","MEAN_MOTION_DOT":"0.00002256","SITE":"AFETR","OBJECT_TYPE":"PAYLOAD","COUNTRY_CODE":"US","EPOCH":"2021-08-27T16:52:19.485120","APOAPSIS":"548.127","INCLINATION":"53.0551","TLE_LINE1":"1 48577U 21041AA  21239.70300330  .00002256  00000-0  17028-3 0  9998","GP_ID":"183558345","OBJECT_ID":"2021-041AA","TIME_SYSTEM":"UTC","MEAN_ELEMENT_THEORY":"SGP4","MEAN_MOTION":"15.06408628","NORAD_CAT_ID":"48577","REV_AT_EPOCH":"1575","CLASSIFICATION_TYPE":"U","OBJECT_NAME":"STARLINK-2231","LAUNCH_DATE":"2021-05-15","BSTAR":"0.00017028000000","TLE_LINE2":"2 48577  53.0551   1.1550 0001357 143.0568 217.0515 15.06408628 15756","FILE":"3104038","RCS_SIZE":"LARGE","PERIAPSIS":"546.247","CENTER_NAME":"EARTH","EPHEMERIS_TYPE":"0","ECCENTRICITY":"0.00013570","MEAN_MOTION_DDOT":"0.0000000000000","DECAY_DATE":null},{"COUNTRY_CODE":"US","SITE":"AFETR","OBJECT_TYPE":"PAYLOAD","OBJECT_ID":"2021-041AB","TIME_SYSTEM":"UTC","MEAN_ELEMENT_THEORY":"SGP4","TLE_LINE1":"1 48578U 21041AB  21239.74997279  .00001549  00000-0  12282-3 0  9998","GP_ID":"183558530","EPOCH":"2021-08-27T17:59:57.649056","INCLINATION":"53.0556","APOAPSIS":"547.988","SEMIMAJOR_AXIS":"6925.324","ARG_OF_PERICENTER":"128.4058","PERIOD":"95.592","ELEMENT_SET_NO":"999","MEAN_ANOMALY":"231.7034","RA_OF_ASC_NODE":"0.9159","REF_FRAME":"TEME","MEAN_MOTION_DOT":"0.00001549","RCS_SIZE":"LARGE","FILE":"3104038","PERIAPSIS":"546.391","CENTER_NAME":"EARTH","EPHEMERIS_TYPE":"0","BSTAR":"0.00012282000000","TLE_LINE2":"2 48578  53.0556   0.9159 0001153 128.4058 231.7034 15.06407891 15760","LAUNCH_DATE":"2021-05-15","DECAY_DATE":null,"MEAN_MOTION_DDOT":"0.0000000000000","ECCENTRICITY":"0.00011530","REV_AT_EPOCH":"1576","MEAN_MOTION":"15.06407891","NORAD_CAT_ID":"48578","OBJECT_NAME":"STARLINK-2232","CLASSIFICATION_TYPE":"U"},{"MEAN_MOTION":"15.06405754","NORAD_CAT_ID":"48579","REV_AT_EPOCH":"1576","CLASSIFICATION_TYPE":"U","OBJECT_NAME":"STARLINK-2233","LAUNCH_DATE":"2021-05-15","BSTAR":"0.00009204700000","TLE_LINE2":"2 48579  53.0577   0.8846 0001346 126.8558 233.2555 15.06405754 15768","RCS_SIZE":"LARGE","FILE":"3104038","PERIAPSIS":"546.264","EPHEMERIS_TYPE":"0","CENTER_NAME":"EARTH","ECCENTRICITY":"0.00013460","MEAN_MOTION_DDOT":"0.0000000000000","DECAY_DATE":null,"ELEMENT_SET_NO":"999","MEAN_ANOMALY":"233.2555","SEMIMAJOR_AXIS":"6925.331","ARG_OF_PERICENTER":"126.8558","PERIOD":"95.592","RA_OF_ASC_NODE":"0.8846","REF_FRAME":"TEME","MEAN_MOTION_DOT":"0.00001090","SITE":"AFETR","OBJECT_TYPE":"PAYLOAD","COUNTRY_CODE":"US","EPOCH":"2021-08-27T18:11:56.381280","APOAPSIS":"548.128","INCLINATION":"53.0577","TLE_LINE1":"1 48579U 21041AC  21239.75829145  .00001090  00000-0  92047-4 0  9995","GP_ID":"183558082","TIME_SYSTEM":"UTC","OBJECT_ID":"2021-041AC","MEAN_ELEMENT_THEORY":"SGP4"},{"SEMIMAJOR_AXIS":"6817.810","ARG_OF_PERICENTER":"30.8254","PERIOD":"93.374","ELEMENT_SET_NO":"999","MEAN_ANOMALY":"56.0172","RA_OF_ASC_NODE":"345.5517","REF_FRAME":"TEME","MEAN_MOTION_DOT":"-0.00061864","COUNTRY_CODE":"US","SITE":"AFETR","OBJECT_TYPE":"PAYLOAD","TLE_LINE1":"1 48580U 21041AD  21239.91668981 -.00061864  00000-0 -14224-2 0  9990","GP_ID":"183558249","TIME_SYSTEM":"UTC","OBJECT_ID":"2021-041AD","MEAN_ELEMENT_THEORY":"SGP4","EPOCH":"2021-08-27T22:00:01.999584","INCLINATION":"53.0570","APOAPSIS":"441.006","MEAN_MOTION":"15.42181315","NORAD_CAT_ID":"48580","REV_AT_EPOCH":"365","OBJECT_NAME":"STARLINK-2234","CLASSIFICATION_TYPE":"U","BSTAR":"-0.00142240000000","TLE_LINE2":"2 48580  53.0570 345.5517 0001953  30.8254  56.0172 15.42181315  3653","PERIAPSIS":"438.343","FILE":"3104038","RCS_SIZE":"LARGE","EPHEMERIS_TYPE":"0","CENTER_NAME":"EARTH","LAUNCH_DATE":"2021-05-15","MEAN_MOTION_DDOT":"0.0000000000000","DECAY_DATE":null,"ECCENTRICITY":"0.00019530"},{"SITE":"AFETR","OBJECT_TYPE":"PAYLOAD","COUNTRY_CODE":"US","EPOCH":"2021-08-27T22:00:01.999584","INCLINATION":"53.0549","APOAPSIS":"441.043","TIME_SYSTEM":"UTC","OBJECT_ID":"2021-041AE","MEAN_ELEMENT_THEORY":"SGP4","TLE_LINE1":"1 48581U 21041AE  21239.91668981 -.00003654  00000-0 -74507-4 0  9996","GP_ID":"183557990","ELEMENT_SET_NO":"999","MEAN_ANOMALY":"37.8083","ARG_OF_PERICENTER":"45.2367","SEMIMAJOR_AXIS":"6817.846","PERIOD":"93.375","RA_OF_ASC_NODE":"347.6749","REF_FRAME":"TEME","MEAN_MOTION_DOT":"-0.00003654","LAUNCH_DATE":"2021-05-15","RCS_SIZE":"LARGE","FILE":"3104038","PERIAPSIS":"438.380","CENTER_NAME":"EARTH","EPHEMERIS_TYPE":"0","BSTAR":"-0.00007450700000","TLE_LINE2":"2 48581  53.0549 347.6749 0001953  45.2367  37.8083 15.42168972  3657","ECCENTRICITY":"0.00019530","DECAY_DATE":null,"MEAN_MOTION_DDOT":"0.0000000000000","REV_AT_EPOCH":"365","MEAN_MOTION":"15.42168972","NORAD_CAT_ID":"48581","CLASSIFICATION_TYPE":"U","OBJECT_NAME":"STARLINK-2235"},{"ECCENTRICITY":"0.00020230","DECAY_DATE":null,"MEAN_MOTION_DDOT":"0.0000000000000","LAUNCH_DATE":"2021-05-15","EPHEMERIS_TYPE":"0","FILE":"3104038","RCS_SIZE":"LARGE","PERIAPSIS":"438.292","CENTER_NAME":"EARTH","TLE_LINE2":"2 48582  53.0558 346.2384 0002023  35.7880  52.4762 15.42182514  3702","BSTAR":"-0.00149540000000","CLASSIFICATION_TYPE":"U","OBJECT_NAME":"STARLINK-2236","REV_AT_EPOCH":"370","NORAD_CAT_ID":"48582","MEAN_MOTION":"15.42182514","APOAPSIS":"441.051","INCLINATION":"53.0558","EPOCH":"2021-08-27T22:00:01.999584","MEAN_ELEMENT_THEORY":"SGP4","OBJECT_ID":"2021-041AF","TIME_SYSTEM":"UTC","GP_ID":"183558175","TLE_LINE1":"1 48582U 21041AF  21239.91668981 -.00064995  00000-0 -14954-2 0  9990","OBJECT_TYPE":"PAYLOAD","SITE":"AFETR","COUNTRY_CODE":"US","MEAN_MOTION_DOT":"-0.00064995","RA_OF_ASC_NODE":"346.2384","REF_FRAME":"TEME","ELEMENT_SET_NO":"999","MEAN_ANOMALY":"52.4762","PERIOD":"93.374","SEMIMAJOR_AXIS":"6817.806","ARG_OF_PERICENTER":"35.7880"},{"OBJECT_TYPE":"PAYLOAD","SITE":"AFETR","COUNTRY_CODE":"US","APOAPSIS":"547.915","INCLINATION":"53.0579","EPOCH":"2021-08-27T17:44:04.321824","GP_ID":"183558438","TLE_LINE1":"1 48583U 21041AG  21239.73893891  .00001878  00000-0  14488-3 0  9993","MEAN_ELEMENT_THEORY":"SGP4","OBJECT_ID":"2021-041AG","TIME_SYSTEM":"UTC","ELEMENT_SET_NO":"999","MEAN_ANOMALY":"225.0182","PERIOD":"95.592","SEMIMAJOR_AXIS":"6925.325","ARG_OF_PERICENTER":"135.0892","MEAN_MOTION_DOT":"0.00001878","RA_OF_ASC_NODE":"10.9746","REF_FRAME":"TEME","LAUNCH_DATE":"2021-05-15","TLE_LINE2":"2 48583  53.0579  10.9746 0001048 135.0892 225.0182 15.06407800 15622","BSTAR":"0.00014488000000","FILE":"3104038","PERIAPSIS":"546.464","RCS_SIZE":"LARGE","EPHEMERIS_TYPE":"0","CENTER_NAME":"EARTH","ECCENTRICITY":"0.00010480","MEAN_MOTION_DDOT":"0.0000000000000","DECAY_DATE":null,"NORAD_CAT_ID":"48583","MEAN_MOTION":"15.06407800","REV_AT_EPOCH":"1562","CLASSIFICATION_TYPE":"U","OBJECT_NAME":"STARLINK-2237"},{"MEAN_ANOMALY":"263.0655","ELEMENT_SET_NO":"999","PERIOD":"95.592","SEMIMAJOR_AXIS":"6925.335","ARG_OF_PERICENTER":"121.5239","MEAN_MOTION_DOT":"-0.00003036","REF_FRAME":"TEME","RA_OF_ASC_NODE":"10.1712","OBJECT_TYPE":"PAYLOAD","SITE":"AFETR","COUNTRY_CODE":"US","INCLINATION":"53.0545","APOAPSIS":"547.960","EPOCH":"2021-08-27T22:00:01.999584","GP_ID":"183558605","TLE_LINE1":"1 48584U 21041AH  21239.91668981 -.00003036  00000-0 -18496-3 0  9997","MEAN_ELEMENT_THEORY":"SGP4","TIME_SYSTEM":"UTC","OBJECT_ID":"2021-041AH","NORAD_CAT_ID":"48584","MEAN_MOTION":"15.06404502","REV_AT_EPOCH":"360","CLASSIFICATION_TYPE":"U","OBJECT_NAME":"STARLINK-2238","LAUNCH_DATE":"2021-05-15","TLE_LINE2":"2 48584  53.0545  10.1712 0001098 121.5239 263.0655 15.06404502  3609","BSTAR":"-0.00018496000000","FILE":"3104038","RCS_SIZE":"LARGE","CENTER_NAME":"EARTH","PERIAPSIS":"546.439","EPHEMERIS_TYPE":"0","ECCENTRICITY":"0.00010980","MEAN_MOTION_DDOT":"0.0000000000000","DECAY_DATE":null},{"ELEMENT_SET_NO":"999","MEAN_ANOMALY":"218.5102","SEMIMAJOR_AXIS":"6925.286","ARG_OF_PERICENTER":"106.1150","PERIOD":"95.591","RA_OF_ASC_NODE":"10.1774","REF_FRAME":"TEME","MEAN_MOTION_DOT":"-0.00051059","SITE":"AFETR","OBJECT_TYPE":"PAYLOAD","COUNTRY_CODE":"US","EPOCH":"2021-08-27T22:00:01.999584","APOAPSIS":"548.048","INCLINATION":"53.0559","TLE_LINE1":"1 48585U 21041AJ  21239.91668981 -.00051059  00000-0 -34317-2 0  9995","GP_ID":"183558346","TIME_SYSTEM":"UTC","OBJECT_ID":"2021-041AJ","MEAN_ELEMENT_THEORY":"SGP4","MEAN_MOTION":"15.06420433","NORAD_CAT_ID":"48585","REV_AT_EPOCH":"359","CLASSIFICATION_TYPE":"U","OBJECT_NAME":"STARLINK-2240","LAUNCH_DATE":"2021-05-15","BSTAR":"-0.00343170000000","TLE_LINE2":"2 48585  53.0559  10.1774 0001295 106.1150 218.5102 15.06420433  3594","FILE":"3104038","RCS_SIZE":"LARGE","CENTER_NAME":"EARTH","PERIAPSIS":"546.254","EPHEMERIS_TYPE":"0","ECCENTRICITY":"0.00012950","MEAN_MOTION_DDOT":"0.0000000000000","DECAY_DATE":null},{"MEAN_MOTION_DOT":"-0.00004891","RA_OF_ASC_NODE":"10.1786","REF_FRAME":"TEME","PERIOD":"95.591","SEMIMAJOR_AXIS":"6925.313","ARG_OF_PERICENTER":"115.1338","MEAN_ANOMALY":"249.3817","ELEMENT_SET_NO":"999","GP_ID":"183558531","TLE_LINE1":"1 48586U 21041AK  21239.91668981 -.00004891  00000-0 -30961-3 0  9990","MEAN_ELEMENT_THEORY":"SGP4","OBJECT_ID":"2021-041AK","TIME_SYSTEM":"UTC","APOAPSIS":"547.978","INCLINATION":"53.0556","EPOCH":"2021-08-27T22:00:01.999584","COUNTRY_CODE":"US","OBJECT_TYPE":"PAYLOAD","SITE":"AFETR","OBJECT_NAME":"STARLINK-2241","CLASSIFICATION_TYPE":"U","NORAD_CAT_ID":"48586","MEAN_MOTION":"15.06411462","REV_AT_EPOCH":"360","MEAN_MOTION_DDOT":"0.0000000000000","DECAY_DATE":null,"ECCENTRICITY":"0.00011540","TLE_LINE2":"2 48586  53.0556  10.1786 0001154 115.1338 249.3817 15.06411462  3606","BSTAR":"-0.00030961000000","RCS_SIZE":"LARGE","FILE":"3104038","CENTER_NAME":"EARTH","PERIAPSIS":"546.379","EPHEMERIS_TYPE":"0","LAUNCH_DATE":"2021-05-15"}];
